{"type": "FeatureCollection", "features": [ {"type": "Feature", "properties": {"norad_id": 66639, "name": "STARLINK-35908", "group": "last-30-days", "lat": 52.90977206303092, "lon": -79.37318706653734, "alt_km": 380.5195610501005, "timestamp": "2025-12-10T11:33:52.173186+00:00", "meta": {"OBJECT_NAME": "STARLINK-35908", "OBJECT_ID": "2025-271Y", "EPOCH": "2025-12-10T04:00:01.998720", "MEAN_MOTION": 15.61167472, "ECCENTRICITY": 0.0001085, "INCLINATION": 53.1599, "RA_OF_ASC_NODE": 199.5601, "ARG_OF_PERICENTER": 70.1987, "MEAN_ANOMALY": 43.8498, "EPHEMERIS_TYPE": 0, "CLASSIFICATION_TYPE": "U", "NORAD_CAT_ID": 66639, "ELEMENT_SET_NO": 999, "REV_AT_EPOCH": 383, "BSTAR": -0.026507, "MEAN_MOTION_DOT": -0.02004077, "MEAN_MOTION_DDOT": 0}, "tle": {"line1": "1 66639U 25271Y   25344.16668980 -.02004077  00000+0 -26507-1 0  9991", "line2": "2 66639  53.1599 199.5601 0001085  70.1987  43.8498 15.61167472  3831"}}, "geometry": {"type": "Point", "coordinates": [-79.37318706653734, 52.90977206303092]}}, {"type": "Feature", "properties": {"norad_id": 66640, "name": "STARLINK-35921", "group": "last-30-days", "lat": 53.064787945045104, "lon": -76.20177005010186, "alt_km": 380.49858352266256, "timestamp": "2025-12-10T11:33:52.173196+00:00", "meta": {"OBJECT_NAME": "STARLINK-35921", "OBJECT_ID": "2025-271Z", "EPOCH": "2025-12-10T04:00:01.998720", "MEAN_MOTION": 15.61167128, "ECCENTRICITY": 0.000107, "INCLINATION": 53.1595, "RA_OF_ASC_NODE": 199.5565, "ARG_OF_PERICENTER": 80.6483, "MEAN_ANOMALY": 35.3167, "EPHEMERIS_TYPE": 0, "CLASSIFICATION_TYPE": "U", "NORAD_CAT_ID": 66640, "ELEMENT_SET_NO": 999, "REV_AT_EPOCH": 383, "BSTAR": -0.026517, "MEAN_MOTION_DOT": -0.02004665, "MEAN_MOTION_DDOT": 0}, "tle": {"line1": "1 66640U 25271Z   25344.16668980 -.02004665  00000+0 -26517-1 0  9997", "line2": "2 66640  53.1595 199.5565 0001070  80.6483  35.3167 15.61167128  3836"}}, "geometry": {"type": "Point", "coordinates": [-76.20177005010186, 53.064787945045104]}}, {"type": "Feature", "properties": {"norad_id": 66641, "name": "STARLINK-35923", "group": "last-30-days", "lat": 52.83297273484064, "lon": -63.457102545199895, "alt_km": 380.5102002830181, "timestamp": "2025-12-10T11:33:52.173209+00:00", "meta": {"OBJECT_NAME": "STARLINK-35923", "OBJECT_ID": "2025-271AA", "EPOCH": "2025-12-10T04:00:01.998720", "MEAN_MOTION": 15.61169319, "ECCENTRICITY": 0.0001123, "INCLINATION": 53.1596, "RA_OF_ASC_NODE": 199.5396, "ARG_OF_PERICENTER": 78.9259, "MEAN_ANOMALY": 44.7058, "EPHEMERIS_TYPE": 0, "CLASSIFICATION_TYPE": "U", "NORAD_CAT_ID": 66641, "ELEMENT_SET_NO": 999, "REV_AT_EPOCH": 383, "BSTAR": -0.026556, "MEAN_MOTION_DOT": -0.02007475, "MEAN_MOTION_DDOT": 0}, "tle": {"line1": "1 66641U 25271AA  25344.16668980 -.02007475  00000+0 -26556-1 0  9993", "line2": "2 66641  53.1596 199.5396 0001123  78.9259  44.7058 15.61169319  3837"}}, "geometry": {"type": "Point", "coordinates": [-63.457102545199895, 52.83297273484064]}}, {"type": "Feature", "properties": {"norad_id": 66642, "name": "STARLINK-35926", "group": "last-30-days", "lat": 53.01874371190791, "lon": -66.62089672687597, "alt_km": 380.550141371652, "timestamp": "2025-12-10T11:33:52.173220+00:00", "meta": {"OBJECT_NAME": "STARLINK-35926", "OBJECT_ID": "2025-271AB", "EPOCH": "2025-12-10T04:00:01.998720", "MEAN_MOTION": 15.6116684, "ECCENTRICITY": 0.0001056, "INCLINATION": 53.1595, "RA_OF_ASC_NODE": 199.5443, "ARG_OF_PERICENTER": 69.6328, "MEAN_ANOMALY": 52.0831, "EPHEMERIS_TYPE": 0, "CLASSIFICATION_TYPE": "U", "NORAD_CAT_ID": 66642, "ELEMENT_SET_NO": 999, "REV_AT_EPOCH": 359, "BSTAR": -0.0265, "MEAN_MOTION_DOT": -0.02003534, "MEAN_MOTION_DDOT": 0}, "tle": {"line1": "1 66642U 25271AB  25344.16668980 -.02003534  00000+0 -26500-1 0  9995", "line2": "2 66642  53.1595 199.5443 0001056  69.6328  52.0831 15.61166840  3599"}}, "geometry": {"type": "Point", "coordinates": [-66.62089672687597, 53.01874371190791]}}, {"type": "Feature", "properties": {"norad_id": 66643, "name": "STARLINK-35918", "group": "last-30-days", "lat": 53.135329237446285, "lon": -73.00933330663227, "alt_km": 380.48403793833586, "timestamp": "2025-12-10T11:33:52.173230+00:00", "meta": {"OBJECT_NAME": "STARLINK-35918", "OBJECT_ID": "2025-271AC", "EPOCH": "2025-12-10T04:00:01.998720", "MEAN_MOTION": 15.61167463, "ECCENTRICITY": 0.0001078, "INCLINATION": 53.1596, "RA_OF_ASC_NODE": 199.5527, "ARG_OF_PERICENTER": 81.5624, "MEAN_ANOMALY": 36.3192, "EPHEMERIS_TYPE": 0, "CLASSIFICATION_TYPE": "U", "NORAD_CAT_ID": 66643, "ELEMENT_SET_NO": 999, "REV_AT_EPOCH": 383, "BSTAR": -0.026521, "MEAN_MOTION_DOT": -0.02005002, "MEAN_MOTION_DDOT": 0}, "tle": {"line1": "1 66643U 25271AC  25344.16668980 -.02005002  00000+0 -26521-1 0  9991", "line2": "2 66643  53.1596 199.5527 0001078  81.5624  36.3192 15.61167463  3834"}}, "geometry": {"type": "Point", "coordinates": [-73.00933330663227, 53.135329237446285]}}, {"type": "Feature", "properties": {"norad_id": 66644, "name": "STARLINK-35938", "group": "last-30-days", "lat": 53.12002327600382, "lon": -69.81352560907827, "alt_km": 380.473306350902, "timestamp": "2025-12-10T11:33:52.173239+00:00", "meta": {"OBJECT_NAME": "STARLINK-35938", "OBJECT_ID": "2025-271AD", "EPOCH": "2025-12-10T04:00:01.998720", "MEAN_MOTION": 15.61167156, "ECCENTRICITY": 0.0001091, "INCLINATION": 53.1596, "RA_OF_ASC_NODE": 199.5485, "ARG_OF_PERICENTER": 83.9716, "MEAN_ANOMALY": 35.8265, "EPHEMERIS_TYPE": 0, "CLASSIFICATION_TYPE": "U", "NORAD_CAT_ID": 66644, "ELEMENT_SET_NO": 999, "REV_AT_EPOCH": 383, "BSTAR": -0.026496, "MEAN_MOTION_DOT": -0.02003284, "MEAN_MOTION_DDOT": 0}, "tle": {"line1": "1 66644U 25271AD  25344.16668980 -.02003284  00000+0 -26496-1 0  9993", "line2": "2 66644  53.1596 199.5485 0001091  83.9716  35.8265 15.61167156  3835"}}, "geometry": {"type": "Point", "coordinates": [-69.81352560907827, 53.12002327600382]}}, {"type": "Feature", "properties": {"norad_id": 66645, "name": "SHENZHOU-22", "group": "last-30-days", "lat": 31.206698681299546, "lon": 73.72462685008036, "alt_km": 380.6856936691347, "timestamp": "2025-12-10T11:33:52.173250+00:00", "meta": {"OBJECT_NAME": "SHENZHOU-22", "OBJECT_ID": "2025-272A", "EPOCH": "2025-12-09T13:49:14.456064", "MEAN_MOTION": 15.58965688, "ECCENTRICITY": 0.00089597, "INCLINATION": 41.4682, "RA_OF_ASC_NODE": 35.9133, "ARG_OF_PERICENTER": 5.1145, "MEAN_ANOMALY": 354.9784, "EPHEMERIS_TYPE": 0, "CLASSIFICATION_TYPE": "U", "NORAD_CAT_ID": 66645, "ELEMENT_SET_NO": 999, "REV_AT_EPOCH": 26300, "BSTAR": 0.00041052725, "MEAN_MOTION_DOT": 0.00032682, "MEAN_MOTION_DDOT": 0}, "tle": {"line1": "1 66645U 25272A   25343.57586176  .00032682  00000+0  41053-3 0  9993", "line2": "2 66645  41.4682  35.9133 0008959   5.1145 354.9784 15.58965688263007"}}, "geometry": {"type": "Point", "coordinates": [73.72462685008036, 31.206698681299546]}}, {"type": "Feature", "properties": {"norad_id": 66647, "name": "COSMOS 2597 (RODNIK-S 22)", "group": "last-30-days", "lat": 78.4362191750287, "lon": 67.76800764371617, "alt_km": 1497.0543052478497, "timestamp": "2025-12-10T11:33:52.173260+00:00", "meta": {"OBJECT_NAME": "COSMOS 2597 (RODNIK-S 22)", "OBJECT_ID": "2025-273A", "EPOCH": "2025-12-10T05:14:02.266656", "MEAN_MOTION": 12.41951285, "ECCENTRICITY": 0.0007944, "INCLINATION": 82.4985, "RA_OF_ASC_NODE": 288.0149, "ARG_OF_PERICENTER": 295.1626, "MEAN_ANOMALY": 64.8629, "EPHEMERIS_TYPE": 0, "CLASSIFICATION_TYPE": "U", "NORAD_CAT_ID": 66647, "ELEMENT_SET_NO": 999, "REV_AT_EPOCH": 182, "BSTAR": 0.00028185, "MEAN_MOTION_DOT": 4.8e-07, "MEAN_MOTION_DDOT": 0}, "tle": {"line1": "1 66647U 25273A   25344.21808179  .00000048  00000+0  28185-3 0  9990", "line2": "2 66647  82.4985 288.0149 0007944 295.1626  64.8629 12.41951285  1828"}}, "geometry": {"type": "Point", "coordinates": [67.76800764371617, 78.4362191750287]}}, {"type": "Feature", "properties": {"norad_id": 66648, "name": "COSMOS 2598 (RODNIK-S 23)", "group": "last-30-days", "lat": 54.65840532608236, "lon": 97.15308344006219, "alt_km": 1493.0712731147714, "timestamp": "2025-12-10T11:33:52.173276+00:00", "meta": {"OBJECT_NAME": "COSMOS 2598 (RODNIK-S 23)", "OBJECT_ID": "2025-273B", "EPOCH": "2025-12-10T05:05:59.353728", "MEAN_MOTION": 12.42861567, "ECCENTRICITY": 0.0007267, "INCLINATION": 82.5026, "RA_OF_ASC_NODE": 288.0217, "ARG_OF_PERICENTER": 257.2935, "MEAN_ANOMALY": 102.7333, "EPHEMERIS_TYPE": 0, "CLASSIFICATION_TYPE": "U", "NORAD_CAT_ID": 66648, "ELEMENT_SET_NO": 999, "REV_AT_EPOCH": 182, "BSTAR": -2.8655e-05, "MEAN_MOTION_DOT": 6e-08, "MEAN_MOTION_DDOT": 0}, "tle": {"line1": "1 66648U 25273B   25344.21249252  .00000006  00000+0 -28655-4 0  9990", "line2": "2 66648  82.5026 288.0217 0007267 257.2935 102.7333 12.42861567  1820"}}, "geometry": {"type": "Point", "coordinates": [97.15308344006219, 54.65840532608236]}}, {"type": "Feature", "properties": {"norad_id": 66649, "name": "COSMOS 2599 (RODNIK-S 24)", "group": "last-30-days", "lat": 80.36444510002556, "lon": -21.274530445815923, "alt_km": 1496.9588172115818, "timestamp": "2025-12-10T11:33:52.173288+00:00", "meta": {"OBJECT_NAME": "COSMOS 2599 (RODNIK-S 24)", "OBJECT_ID": "2025-273C", "EPOCH": "2025-12-10T05:18:45.385632", "MEAN_MOTION": 12.41671887, "ECCENTRICITY": 0.0008146, "INCLINATION": 82.5026, "RA_OF_ASC_NODE": 288.0284, "ARG_OF_PERICENTER": 305.737, "MEAN_ANOMALY": 54.2951, "EPHEMERIS_TYPE": 0, "CLASSIFICATION_TYPE": "U", "NORAD_CAT_ID": 66649, "ELEMENT_SET_NO": 999, "REV_AT_EPOCH": 182, "BSTAR": 0.000278, "MEAN_MOTION_DOT": 4.8e-07, "MEAN_MOTION_DDOT": 0}, "tle": {"line1": "1 66649U 25273C   25344.22135863  .00000048  00000+0  27800-3 0  9999", "line2": "2 66649  82.5026 288.0284 0008146 305.7370  54.2951 12.41671887  1824"}}, "geometry": {"type": "Point", "coordinates": [-21.274530445815923, 80.36444510002556]}}]}